{"type": "FeatureCollection", "features": [ {"type": "Feature", "properties": {"norad_id": 34529, "name": "IRIDIUM 33 DEB", "group": "iridium-33-debris", "lat": -16.03158301243212, "lon": 37.49208715518062, "alt_km": 763.4788028801859, "timestamp": "2025-12-05T09:41:19.516807+00:00", "meta": {"OBJECT_NAME": "IRIDIUM 33 DEB", "OBJECT_ID": "1997-051HW", "EPOCH": "2025-12-04T10:25:29.464320", "MEAN_MOTION": 14.40606025, "ECCENTRICITY": 0.0003797, "INCLINATION": 86.3647, "RA_OF_ASC_NODE": 38.9518, "ARG_OF_PERICENTER": 206.5624, "MEAN_ANOMALY": 153.5381, "EPHEMERIS_TYPE": 0, "CLASSIFICATION_TYPE": "U", "NORAD_CAT_ID": 34529, "ELEMENT_SET_NO": 999, "REV_AT_EPOCH": 88022, "BSTAR": 0.0002444, "MEAN_MOTION_DOT": 7.98e-06, "MEAN_MOTION_DDOT": 0}, "tle": {"line1": "1 34529U 97051HW  25338.43436880  .00000798  00000+0  24440-3 0  9992", "line2": "2 34529  86.3647  38.9518 0003797 206.5624 153.5381 14.40606025880228"}}, "geometry": {"type": "Point", "coordinates": [37.49208715518062, -16.03158301243212]}}, {"type": "Feature", "properties": {"norad_id": 34538, "name": "IRIDIUM 33 DEB", "group": "iridium-33-debris", "lat": 51.24138708374281, "lon": -175.8808209282435, "alt_km": 762.562318734459, "timestamp": "2025-12-05T09:41:19.516818+00:00", "meta": {"OBJECT_NAME": "IRIDIUM 33 DEB", "OBJECT_ID": "1997-051JF", "EPOCH": "2025-12-04T07:02:51.253728", "MEAN_MOTION": 14.42571124, "ECCENTRICITY": 0.0033852, "INCLINATION": 86.278, "RA_OF_ASC_NODE": 9.2557, "ARG_OF_PERICENTER": 356.4669, "MEAN_ANOMALY": 130.6671, "EPHEMERIS_TYPE": 0, "CLASSIFICATION_TYPE": "U", "NORAD_CAT_ID": 34538, "ELEMENT_SET_NO": 999, "REV_AT_EPOCH": 87634, "BSTAR": 0.00201, "MEAN_MOTION_DOT": 6.735e-05, "MEAN_MOTION_DDOT": 0}, "tle": {"line1": "1 34538U 97051JF  25338.29364877  .00006735  00000+0  20100-2 0  9997", "line2": "2 34538  86.2780   9.2557 0033852 356.4669 130.6671 14.42571124876347"}}, "geometry": {"type": "Point", "coordinates": [-175.8808209282435, 51.24138708374281]}}, {"type": "Feature", "properties": {"norad_id": 34540, "name": "IRIDIUM 33 DEB", "group": "iridium-33-debris", "lat": 46.85851283929514, "lon": -45.09052508049888, "alt_km": 648.7878249676833, "timestamp": "2025-12-05T09:41:19.516829+00:00", "meta": {"OBJECT_NAME": "IRIDIUM 33 DEB", "OBJECT_ID": "1997-051JH", "EPOCH": "2025-12-04T09:44:19.454208", "MEAN_MOTION": 14.75040189, "ECCENTRICITY": 0.0014993, "INCLINATION": 86.3094, "RA_OF_ASC_NODE": 311.4162, "ARG_OF_PERICENTER": 189.6254, "MEAN_ANOMALY": 321.8404, "EPHEMERIS_TYPE": 0, "CLASSIFICATION_TYPE": "U", "NORAD_CAT_ID": 34540, "ELEMENT_SET_NO": 999, "REV_AT_EPOCH": 88898, "BSTAR": 0.004011, "MEAN_MOTION_DOT": 0.00027148, "MEAN_MOTION_DDOT": 0}, "tle": {"line1": "1 34540U 97051JH  25338.40578072  .00027148  00000+0  40110-2 0  9991", "line2": "2 34540  86.3094 311.4162 0014993 189.6254 321.8404 14.75040189888989"}}, "geometry": {"type": "Point", "coordinates": [-45.09052508049888, 46.85851283929514]}}, {"type": "Feature", "properties": {"norad_id": 34648, "name": "IRIDIUM 33 DEB", "group": "iridium-33-debris", "lat": 79.2914527581675, "lon": -55.59310965734087, "alt_km": 911.4919506104989, "timestamp": "2025-12-05T09:41:19.516839+00:00", "meta": {"OBJECT_NAME": "IRIDIUM 33 DEB", "OBJECT_ID": "1997-051JZ", "EPOCH": "2025-12-01T03:11:38.418720", "MEAN_MOTION": 14.1087899, "ECCENTRICITY": 0.01868529, "INCLINATION": 86.3903, "RA_OF_ASC_NODE": 286.6295, "ARG_OF_PERICENTER": 334.6513, "MEAN_ANOMALY": 24.5588, "EPHEMERIS_TYPE": 0, "CLASSIFICATION_TYPE": "U", "NORAD_CAT_ID": 34648, "ELEMENT_SET_NO": 999, "REV_AT_EPOCH": 84797, "BSTAR": 0.0079356223, "MEAN_MOTION_DOT": 0.00016788, "MEAN_MOTION_DDOT": 0}, "tle": {"line1": "1 34648U 97051JZ  25335.13308355  .00016788  00000+0  79356-2 0  9994", "line2": "2 34648  86.3903 286.6295 0186852 334.6513  24.5588 14.10878990847973"}}, "geometry": {"type": "Point", "coordinates": [-55.59310965734087, 79.2914527581675]}}, {"type": "Feature", "properties": {"norad_id": 34651, "name": "IRIDIUM 33 DEB", "group": "iridium-33-debris", "lat": 64.77940742273694, "lon": -44.238543145377825, "alt_km": 837.5857219400432, "timestamp": "2025-12-05T09:41:19.516850+00:00", "meta": {"OBJECT_NAME": "IRIDIUM 33 DEB", "OBJECT_ID": "1997-051KC", "EPOCH": "2025-12-04T11:14:22.766784", "MEAN_MOTION": 14.25597734, "ECCENTRICITY": 0.0141881, "INCLINATION": 86.2823, "RA_OF_ASC_NODE": 144.094, "ARG_OF_PERICENTER": 230.2415, "MEAN_ANOMALY": 128.6209, "EPHEMERIS_TYPE": 0, "CLASSIFICATION_TYPE": "U", "NORAD_CAT_ID": 34651, "ELEMENT_SET_NO": 999, "REV_AT_EPOCH": 85778, "BSTAR": 0.0077267, "MEAN_MOTION_DOT": 0.00020383, "MEAN_MOTION_DDOT": 0}, "tle": {"line1": "1 34651U 97051KC  25338.46831906  .00020383  00000+0  77267-2 0  9995", "line2": "2 34651  86.2823 144.0940 0141881 230.2415 128.6209 14.25597734857782"}}, "geometry": {"type": "Point", "coordinates": [-44.238543145377825, 64.77940742273694]}}, {"type": "Feature", "properties": {"norad_id": 34652, "name": "IRIDIUM 33 DEB", "group": "iridium-33-debris", "lat": -69.28686333059622, "lon": -26.500245417098856, "alt_km": 678.5436773030224, "timestamp": "2025-12-05T09:41:19.516861+00:00", "meta": {"OBJECT_NAME": "IRIDIUM 33 DEB", "OBJECT_ID": "1997-051KD", "EPOCH": "2025-12-02T12:03:44.445600", "MEAN_MOTION": 14.61898676, "ECCENTRICITY": 0.00270627, "INCLINATION": 86.3312, "RA_OF_ASC_NODE": 344.5601, "ARG_OF_PERICENTER": 334.9096, "MEAN_ANOMALY": 177.4047, "EPHEMERIS_TYPE": 0, "CLASSIFICATION_TYPE": "U", "NORAD_CAT_ID": 34652, "ELEMENT_SET_NO": 999, "REV_AT_EPOCH": 88334, "BSTAR": 0.0012168376, "MEAN_MOTION_DOT": 6.139e-05, "MEAN_MOTION_DDOT": 0}, "tle": {"line1": "1 34652U 97051KD  25336.50259775  .00006139  00000+0  12168-2 0  9999", "line2": "2 34652  86.3312 344.5601 0027062 334.9096 177.4047 14.61898676883341"}}, "geometry": {"type": "Point", "coordinates": [-26.500245417098856, -69.28686333059622]}}, {"type": "Feature", "properties": {"norad_id": 34690, "name": "IRIDIUM 33 DEB", "group": "iridium-33-debris", "lat": -23.93381779075092, "lon": 38.56947941348587, "alt_km": 712.5404305822985, "timestamp": "2025-12-05T09:41:19.516871+00:00", "meta": {"OBJECT_NAME": "IRIDIUM 33 DEB", "OBJECT_ID": "1997-051KM", "EPOCH": "2025-12-03T11:52:36.056064", "MEAN_MOTION": 14.55037039, "ECCENTRICITY": 0.0011766, "INCLINATION": 86.3793, "RA_OF_ASC_NODE": 41.009, "ARG_OF_PERICENTER": 56.8306, "MEAN_ANOMALY": 7.0908, "EPHEMERIS_TYPE": 0, "CLASSIFICATION_TYPE": "U", "NORAD_CAT_ID": 34690, "ELEMENT_SET_NO": 999, "REV_AT_EPOCH": 87960, "BSTAR": 0.00070543794, "MEAN_MOTION_DOT": 3.062e-05, "MEAN_MOTION_DDOT": 0}, "tle": {"line1": "1 34690U 97051KM  25337.49486176  .00003062  00000+0  70544-3 0  9992", "line2": "2 34690  86.3793  41.0090 0011766  56.8306   7.0908 14.55037039879604"}}, "geometry": {"type": "Point", "coordinates": [38.56947941348587, -23.93381779075092]}}, {"type": "Feature", "properties": {"norad_id": 34693, "name": "IRIDIUM 33 DEB", "group": "iridium-33-debris", "lat": -62.2624521956057, "lon": -59.59584078151753, "alt_km": 502.48039993605926, "timestamp": "2025-12-05T09:41:19.516882+00:00", "meta": {"OBJECT_NAME": "IRIDIUM 33 DEB", "OBJECT_ID": "1997-051KQ", "EPOCH": "2025-12-04T09:25:40.956096", "MEAN_MOTION": 15.2504768, "ECCENTRICITY": 0.0015648, "INCLINATION": 86.3057, "RA_OF_ASC_NODE": 307.9621, "ARG_OF_PERICENTER": 65.2791, "MEAN_ANOMALY": 85.5707, "EPHEMERIS_TYPE": 0, "CLASSIFICATION_TYPE": "U", "NORAD_CAT_ID": 34693, "ELEMENT_SET_NO": 999, "REV_AT_EPOCH": 88787, "BSTAR": 0.0093371, "MEAN_MOTION_DOT": 0.00241217, "MEAN_MOTION_DDOT": 0}, "tle": {"line1": "1 34693U 97051KQ  25338.39283514  .00241217  00000+0  93371-2 0  9994", "line2": "2 34693  86.3057 307.9621 0015648  65.2791  85.5707 15.25047680887876"}}, "geometry": {"type": "Point", "coordinates": [-59.59584078151753, -62.2624521956057]}}, {"type": "Feature", "properties": {"norad_id": 34696, "name": "IRIDIUM 33 DEB", "group": "iridium-33-debris", "lat": -38.54849132123258, "lon": -146.01868840833455, "alt_km": 638.1038927274767, "timestamp": "2025-12-05T09:41:19.516892+00:00", "meta": {"OBJECT_NAME": "IRIDIUM 33 DEB", "OBJECT_ID": "1997-051KT", "EPOCH": "2025-12-03T04:28:11.100576", "MEAN_MOTION": 14.64210204, "ECCENTRICITY": 0.00749062, "INCLINATION": 86.1858, "RA_OF_ASC_NODE": 31.9639, "ARG_OF_PERICENTER": 199.8052, "MEAN_ANOMALY": 216.5408, "EPHEMERIS_TYPE": 0, "CLASSIFICATION_TYPE": "U", "NORAD_CAT_ID": 34696, "ELEMENT_SET_NO": 999, "REV_AT_EPOCH": 86533, "BSTAR": 0.0085473115, "MEAN_MOTION_DOT": 0.00047152, "MEAN_MOTION_DDOT": 0}, "tle": {"line1": "1 34696U 97051KT  25337.18623959  .00047152  00000+0  85473-2 0  9990", "line2": "2 34696  86.1858  31.9639 0074906 199.8052 216.5408 14.64210204865332"}}, "geometry": {"type": "Point", "coordinates": [-146.01868840833455, -38.54849132123258]}}, {"type": "Feature", "properties": {"norad_id": 34765, "name": "IRIDIUM 33 DEB", "group": "iridium-33-debris", "lat": 30.541689051751728, "lon": 38.07350325183458, "alt_km": 764.8352513487634, "timestamp": "2025-12-05T09:41:19.516902+00:00", "meta": {"OBJECT_NAME": "IRIDIUM 33 DEB", "OBJECT_ID": "1997-051LJ", "EPOCH": "2025-12-04T15:47:27.445056", "MEAN_MOTION": 14.40432843, "ECCENTRICITY": 0.0014681, "INCLINATION": 86.3397, "RA_OF_ASC_NODE": 36.2288, "ARG_OF_PERICENTER": 240.3443, "MEAN_ANOMALY": 245.6527, "EPHEMERIS_TYPE": 0, "CLASSIFICATION_TYPE": "U", "NORAD_CAT_ID": 34765, "ELEMENT_SET_NO": 999, "REV_AT_EPOCH": 87497, "BSTAR": 0.00077372, "MEAN_MOTION_DOT": 2.479e-05, "MEAN_MOTION_DDOT": 0}, "tle": {"line1": "1 34765U 97051LJ  25338.65795654  .00002479  00000+0  77372-3 0  9995", "line2": "2 34765  86.3397  36.2288 0014681 240.3443 245.6527 14.40432843874971"}}, "geometry": {"type": "Point", "coordinates": [38.07350325183458, 30.541689051751728]}}]}